{"type":"FeatureCollection","features":[{"id":"019ac1b6-9e33-7156-9f66-8b5e55ad71d3","type":"Feature","geometry":{"type":"Point","coordinates":[9.1807794,45.4557332]},"properties":{"name":"Frisco","shop":"sports","sport":"skateboard","addr:city":"Milano","addr:street":"Corso di Porta Ticinese","addr:postcode":"20123","addr:housenumber":"87","phone":"+390250020949","website":"https://friscoshop.it/pages/milan-store","opening_hours":"Mo-Fr 14:30-19:30; Sa 11:00-13:00, 14:30-19:30; Su off"}},{"id":"019ac1b6-9e36-78bf-9592-d65de7a827a7","type":"Feature","geometry":{"type":"Point","coordinates":[9.2044757,45.4834626]},"properties":{"name":"Hector MC","shop":"sports","sport":"skateboard","addr:city":"Milano","addr:street":"Via Vitruvio","addr:postcode":"20124","addr:housenumber":"47","phone":"+390235992840","website":"https://www.hectormc.com"}},{"id":"019ac1b6-9e35-76c2-96c7-6a1953e0b2dc","type":"Feature","geometry":{"type":"Point","coordinates":[9.1977582,45.4824407]},"properties":{"name":"Pleasures Shop","shop":"sports","sport":"skateboard;snowboard","addr:city":"Milano","addr:street":"Via Gustavo Fara","addr:housenumber":"7","phone":"+39 02 89455527","website":"https://pleasuresmilano.com"}},{"id":"019ac1b6-9e31-7d70-ac6e-c5e37c70e1aa","type":"Feature","geometry":{"type":"Point","coordinates":[9.1527521,45.4376361]},"properties":{"name":"Radical Shop","shop":"sports","sport":"skateboard;surfing;ski","addr:city":"Milano","addr:street":"Viale Faenza","addr:postcode":"20142","addr:housenumber":"12/5","phone":"+39 02 817477","website":"https://www.radical-shop.com/"}},{"id":"019ac1b6-9e37-7c34-b3e2-cb3111302a51","type":"Feature","geometry":{"type":"Point","coordinates":[9.207633,45.5179793]},"properties":{"name":"Mission","shop":"sports","sport":"wakeboard;kitesurf;snowboard;sup;surf;skateboard","addr:city":"Milano","addr:street":"Viale Fulvio Testi","addr:postcode":"20126","addr:housenumber":"216","phone":"+390236591569","website":"https://www.sportmission.com"}}],"metadata":{"country_iso":"IT","features_count":5}}